[
    {
        "Altitude(m)": 607897.6290250076,
        "Argument of Periapsis(deg)": 0.0,
        "Eccentricity": 0.0,
        "Inclination(deg)": 60.0,
        "Latitude(deg)": -14.293015653177433,
        "Longitude(deg)": -8.381216570756013,
        "Mean Anomaly(deg)": -16.363600000000048,
        "RAAN(deg)": 100.0,
        "Satellite Name": "Test1 461",
        "Satellite Number": 461,
        "Semi-Major Axis(m)": 6980739.136638005,
        "Time(s)": 0
    },
    {
        "Altitude(m)": 607750.8297190558,
        "Argument of Periapsis(deg)": 0.00010418945913296404,
        "Eccentricity": 0.0,
        "Inclination(deg)": 60.0,
        "Latitude(deg)": -13.758856493350411,
        "Longitude(deg)": -8.094148646979585,
        "Mean Anomaly(deg)": -15.743493854538157,
        "RAAN(deg)": 99.99957995086025,
        "Satellite Name": "Test1 461",
        "Satellite Number": 461,
        "Semi-Major Axis(m)": 6980739.136638005,
        "Time(s)": 10
    }
]